start=new Date('2022-01-04T00:00:00.000Z').valueOf();
sats=[{"SEMIMAJOR_AXIS":"6925.351","OBJECT_TYPE":"PAYLOAD","MEAN_ELEMENT_THEORY":"SGP4","EPOCH":"2022-01-03T19:30:17.928000","PERIOD":"95.592","RA_OF_ASC_NODE":"216.5517","TLE_LINE1":"1 44764U 19074BD  22003.81270750  .00001036  00000-0  88454-4 0  9996","CENTER_NAME":"EARTH","REF_FRAME":"TEME","TIME_SYSTEM":"UTC","OBJECT_NAME":"STARLINK-1059","APOAPSIS":"548.441","NORAD_CAT_ID":"44764","MEAN_MOTION":"15.06399173","LAUNCH_DATE":"2019-11-11","DECAY_DATE":null,"COUNTRY_CODE":"US","OBJECT_ID":"2019-074BD","TLE_LINE2":"2 44764  53.0537 216.5517 0001769  69.7109 290.4070 15.06399173118480","BSTAR":"0.00008845400000","ECCENTRICITY":"0.00017690","FILE":"3256498","PERIAPSIS":"545.991","RCS_SIZE":"LARGE","EPHEMERIS_TYPE":"0","MEAN_ANOMALY":"290.4070","ELEMENT_SET_NO":"999","MEAN_MOTION_DDOT":"0.0000000000000","ARG_OF_PERICENTER":"69.7109","SITE":"AFETR","REV_AT_EPOCH":"11848","INCLINATION":"53.0537","GP_ID":"193014284","CLASSIFICATION_TYPE":"U","MEAN_MOTION_DOT":"0.00001036"},{"REF_FRAME":"TEME","CENTER_NAME":"EARTH","TLE_LINE1":"1 44765U 19074BE  22003.76479301  .00001167  00000-0  97241-4 0  9993","RA_OF_ASC_NODE":"216.7554","PERIOD":"95.592","EPOCH":"2022-01-03T18:21:18.116064","MEAN_ELEMENT_THEORY":"SGP4","OBJECT_TYPE":"PAYLOAD","SEMIMAJOR_AXIS":"6925.350","COUNTRY_CODE":"US","DECAY_DATE":null,"LAUNCH_DATE":"2019-11-11","MEAN_MOTION":"15.06399416","APOAPSIS":"548.580","NORAD_CAT_ID":"44765","OBJECT_NAME":"STARLINK-1060","TIME_SYSTEM":"UTC","ECCENTRICITY":"0.00019700","BSTAR":"0.00009724100000","TLE_LINE2":"2 44765  53.0534 216.7554 0001970  72.1248 287.9956 15.06399416118470","OBJECT_ID":"2019-074BE","GP_ID":"193015030","CLASSIFICATION_TYPE":"U","MEAN_MOTION_DOT":"0.00001167","SITE":"AFETR","REV_AT_EPOCH":"11847","INCLINATION":"53.0534","ARG_OF_PERICENTER":"72.1248","MEAN_MOTION_DDOT":"0.0000000000000","ELEMENT_SET_NO":"999","MEAN_ANOMALY":"287.9956","EPHEMERIS_TYPE":"0","RCS_SIZE":"LARGE","PERIAPSIS":"545.851","FILE":"3256498"},{"INCLINATION":"53.0530","SITE":"AFETR","REV_AT_EPOCH":"11809","ARG_OF_PERICENTER":"74.3616","MEAN_MOTION_DOT":"0.00002109","GP_ID":"192966074","CLASSIFICATION_TYPE":"U","ELEMENT_SET_NO":"999","MEAN_ANOMALY":"285.7565","MEAN_MOTION_DDOT":"0.0000000000000","PERIAPSIS":"546.035","RCS_SIZE":"LARGE","EPHEMERIS_TYPE":"0","FILE":"3255250","BSTAR":"0.00016045000000","ECCENTRICITY":"0.00017380","TLE_LINE2":"2 44766  53.0530 240.0337 0001738  74.3616 285.7565 15.06391679118094","OBJECT_ID":"2019-074BF","COUNTRY_CODE":"US","LAUNCH_DATE":"2019-11-11","DECAY_DATE":null,"MEAN_MOTION":"15.06391679","APOAPSIS":"548.443","NORAD_CAT_ID":"44766","OBJECT_NAME":"STARLINK-1061","TIME_SYSTEM":"UTC","CENTER_NAME":"EARTH","REF_FRAME":"TEME","TLE_LINE1":"1 44766U 19074BF  22003.03313459  .00002109  00000-0  16045-3 0  9994","RA_OF_ASC_NODE":"240.0337","EPOCH":"2022-01-03T00:47:42.828576","MEAN_ELEMENT_THEORY":"SGP4","PERIOD":"95.593","SEMIMAJOR_AXIS":"6925.374","OBJECT_TYPE":"PAYLOAD"},{"TLE_LINE2":"2 44767  53.0532 236.4999 0001993  59.4293 300.6892 15.06399645118213","OBJECT_ID":"2019-074BG","ECCENTRICITY":"0.00019930","BSTAR":"0.00009827100000","EPHEMERIS_TYPE":"0","RCS_SIZE":"LARGE","PERIAPSIS":"545.834","FILE":"3256498","GP_ID":"193016027","MEAN_MOTION_DOT":"0.00001182","CLASSIFICATION_TYPE":"U","INCLINATION":"53.0532","SITE":"AFETR","REV_AT_EPOCH":"11821","ARG_OF_PERICENTER":"59.4293","MEAN_MOTION_DDOT":"0.0000000000000","ELEMENT_SET_NO":"999","MEAN_ANOMALY":"300.6892","PERIOD":"95.592","EPOCH":"2022-01-03T19:43:34.345056","MEAN_ELEMENT_THEORY":"SGP4","OBJECT_TYPE":"PAYLOAD","SEMIMAJOR_AXIS":"6925.350","REF_FRAME":"TEME","CENTER_NAME":"EARTH","TLE_LINE1":"1 44767U 19074BG  22003.82192529  .00001182  00000-0  98271-4 0  9997","RA_OF_ASC_NODE":"236.4999","MEAN_MOTION":"15.06399645","NORAD_CAT_ID":"44767","APOAPSIS":"548.595","TIME_SYSTEM":"UTC","OBJECT_NAME":"STARLINK-1062","COUNTRY_CODE":"US","DECAY_DATE":null,"LAUNCH_DATE":"2019-11-11"},{"DECAY_DATE":null,"LAUNCH_DATE":"2019-11-11","COUNTRY_CODE":"US","OBJECT_NAME":"STARLINK-1063","TIME_SYSTEM":"UTC","MEAN_MOTION":"15.06407097","NORAD_CAT_ID":"44768","APOAPSIS":"548.591","TLE_LINE1":"1 44768U 19074BH  22003.91037733  .00001382  00000-0  11165-3 0  9991","RA_OF_ASC_NODE":"236.1069","REF_FRAME":"TEME","CENTER_NAME":"EARTH","OBJECT_TYPE":"PAYLOAD","SEMIMAJOR_AXIS":"6925.327","PERIOD":"95.592","EPOCH":"2022-01-03T21:50:56.601312","MEAN_ELEMENT_THEORY":"SGP4","MEAN_MOTION_DDOT":"0.0000000000000","ELEMENT_SET_NO":"999","MEAN_ANOMALY":"300.9436","CLASSIFICATION_TYPE":"U","GP_ID":"193014780","MEAN_MOTION_DOT":"0.00001382","SITE":"AFETR","REV_AT_EPOCH":"11823","INCLINATION":"53.0531","ARG_OF_PERICENTER":"59.1752","FILE":"3256498","EPHEMERIS_TYPE":"0","RCS_SIZE":"LARGE","PERIAPSIS":"545.793","ECCENTRICITY":"0.00020200","BSTAR":"0.00011165000000","TLE_LINE2":"2 44768  53.0531 236.1069 0002020  59.1752 300.9436 15.06407097118237","OBJECT_ID":"2019-074BH"},{"OBJECT_ID":"2019-074BJ","TLE_LINE2":"2 44769  53.0532 190.6656 0001969  29.7421 330.3710 15.75578691118914","BSTAR":"0.00493390000000","ECCENTRICITY":"0.00019690","FILE":"3256498","PERIAPSIS":"341.664","EPHEMERIS_TYPE":"0","RCS_SIZE":"LARGE","MEAN_ANOMALY":"330.3710","ELEMENT_SET_NO":"999","MEAN_MOTION_DDOT":"0.0000000000000","ARG_OF_PERICENTER":"29.7421","SITE":"AFETR","INCLINATION":"53.0532","REV_AT_EPOCH":"11891","MEAN_MOTION_DOT":"0.00849093","GP_ID":"193014535","CLASSIFICATION_TYPE":"U","SEMIMAJOR_AXIS":"6721.122","OBJECT_TYPE":"PAYLOAD","MEAN_ELEMENT_THEORY":"SGP4","EPOCH":"2022-01-03T15:58:09.137856","PERIOD":"91.395","RA_OF_ASC_NODE":"190.6656","TLE_LINE1":"1 44769U 19074BJ  22003.66538354  .00849093  00000-0  49339-2 0  9991","CENTER_NAME":"EARTH","REF_FRAME":"TEME","OBJECT_NAME":"STARLINK-1064","TIME_SYSTEM":"UTC","APOAPSIS":"344.310","NORAD_CAT_ID":"44769","MEAN_MOTION":"15.75578691","LAUNCH_DATE":"2019-11-11","DECAY_DATE":null,"COUNTRY_CODE":"US"},{"PERIAPSIS":"535.749","RCS_SIZE":"LARGE","EPHEMERIS_TYPE":"0","FILE":"3256498","REV_AT_EPOCH":"11830","SITE":"AFETR","INCLINATION":"53.0009","ARG_OF_PERICENTER":"91.4069","MEAN_MOTION_DOT":"0.00004853","GP_ID":"193015782","CLASSIFICATION_TYPE":"U","ELEMENT_SET_NO":"999","MEAN_ANOMALY":"268.7073","MEAN_MOTION_DDOT":"0.0000000000000","TLE_LINE2":"2 44770  53.0009 228.6225 0001321  91.4069 268.7073 15.09849122118301","OBJECT_ID":"2019-074BK","BSTAR":"0.00031411000000","ECCENTRICITY":"0.00013210","MEAN_MOTION":"15.09849122","NORAD_CAT_ID":"44770","APOAPSIS":"537.576","OBJECT_NAME":"STARLINK-1065","TIME_SYSTEM":"UTC","COUNTRY_CODE":"US","LAUNCH_DATE":"2019-11-11","DECAY_DATE":null,"EPOCH":"2022-01-03T21:51:33.744672","MEAN_ELEMENT_THEORY":"SGP4","PERIOD":"95.374","SEMIMAJOR_AXIS":"6914.798","OBJECT_TYPE":"PAYLOAD","CENTER_NAME":"EARTH","REF_FRAME":"TEME","TLE_LINE1":"1 44770U 19074BK  22003.91080723  .00004853  00000-0  31411-3 0  9993","RA_OF_ASC_NODE":"228.6225"},{"SEMIMAJOR_AXIS":"6925.362","OBJECT_TYPE":"PAYLOAD","EPOCH":"2022-01-03T18:23:56.937408","MEAN_ELEMENT_THEORY":"SGP4","PERIOD":"95.592","TLE_LINE1":"1 44771U 19074BL  22003.76663122 -.00000111  00000-0  11437-4 0  9998","RA_OF_ASC_NODE":"236.7537","CENTER_NAME":"EARTH","REF_FRAME":"TEME","OBJECT_NAME":"STARLINK-1067","TIME_SYSTEM":"UTC","MEAN_MOTION":"15.06395748","APOAPSIS":"548.687","NORAD_CAT_ID":"44771","LAUNCH_DATE":"2019-11-11","DECAY_DATE":null,"COUNTRY_CODE":"US","TLE_LINE2":"2 44771  53.0532 236.7537 0002109  58.8378 301.2818 15.06395748118200","OBJECT_ID":"2019-074BL","BSTAR":"0.00001143700000","ECCENTRICITY":"0.00021090","FILE":"3256498","PERIAPSIS":"545.766","RCS_SIZE":"LARGE","EPHEMERIS_TYPE":"0","ELEMENT_SET_NO":"999","MEAN_ANOMALY":"301.2818","MEAN_MOTION_DDOT":"0.0000000000000","REV_AT_EPOCH":"11820","SITE":"AFETR","INCLINATION":"53.0532","ARG_OF_PERICENTER":"58.8378","MEAN_MOTION_DOT":"-0.00000111","GP_ID":"193015532","CLASSIFICATION_TYPE":"U"},{"CENTER_NAME":"EARTH","REF_FRAME":"TEME","TLE_LINE1":"1 44772U 19074BM  22003.55837318 -.00001282  00000-0 -67168-4 0  9999","RA_OF_ASC_NODE":"217.6932","EPOCH":"2022-01-03T13:24:03.442752","MEAN_ELEMENT_THEORY":"SGP4","PERIOD":"95.593","SEMIMAJOR_AXIS":"6925.367","OBJECT_TYPE":"PAYLOAD","COUNTRY_CODE":"US","LAUNCH_DATE":"2019-11-11","DECAY_DATE":null,"MEAN_MOTION":"15.06393906","NORAD_CAT_ID":"44772","APOAPSIS":"548.732","OBJECT_NAME":"STARLINK-1068","TIME_SYSTEM":"UTC","BSTAR":"-0.00006716800000","ECCENTRICITY":"0.00021650","TLE_LINE2":"2 44772  53.0527 217.6932 0002165  76.1634 283.9596 15.06393906118610","OBJECT_ID":"2019-074BM","INCLINATION":"53.0527","SITE":"AFETR","REV_AT_EPOCH":"11861","ARG_OF_PERICENTER":"76.1634","GP_ID":"192972329","CLASSIFICATION_TYPE":"U","MEAN_MOTION_DOT":"-0.00001282","ELEMENT_SET_NO":"999","MEAN_ANOMALY":"283.9596","MEAN_MOTION_DDOT":"0.0000000000000","PERIAPSIS":"545.733","EPHEMERIS_TYPE":"0","RCS_SIZE":"LARGE","FILE":"3255254"},{"MEAN_ELEMENT_THEORY":"SGP4","EPOCH":"2022-01-03T18:34:33.110976","PERIOD":"95.592","SEMIMAJOR_AXIS":"6925.333","OBJECT_TYPE":"PAYLOAD","CENTER_NAME":"EARTH","REF_FRAME":"TEME","RA_OF_ASC_NODE":"356.7223","TLE_LINE1":"1 44914U 20001A   22003.77399434  .00000582  00000-0  57956-4 0  9999","NORAD_CAT_ID":"44914","APOAPSIS":"548.175","MEAN_MOTION":"15.06405177","TIME_SYSTEM":"UTC","OBJECT_NAME":"STARLINK-1073","COUNTRY_CODE":"US","LAUNCH_DATE":"2020-01-07","DECAY_DATE":null,"OBJECT_ID":"2020-001A","TLE_LINE2":"2 44914  53.0548 356.7223 0001411  68.0444 292.0694 15.06405177109851","BSTAR":"0.00005795600000","ECCENTRICITY":"0.00014110","PERIAPSIS":"546.221","RCS_SIZE":"LARGE","EPHEMERIS_TYPE":"0","FILE":"3256498","ARG_OF_PERICENTER":"68.0444","REV_AT_EPOCH":"10985","SITE":"AFETR","INCLINATION":"53.0548","GP_ID":"193015045","MEAN_MOTION_DOT":"0.00000582","CLASSIFICATION_TYPE":"U","MEAN_ANOMALY":"292.0694","ELEMENT_SET_NO":"999","MEAN_MOTION_DDOT":"0.0000000000000"}];
